ONEWEB-0134             
1 47280U 20100Y   23303.38516355  .00000518  00000+0  14045-2 0  9990
2 47280  87.9048 181.7215 0001568  70.3545 289.7752 13.12437389138685
ONEWEB-0135             
1 47281U 20100Z   23303.20092926  .00000583  00000+0  15855-2 0  9997
2 47281  87.9051 181.7611 0001470  73.9855 286.1436 13.12441692138687
ONEWEB-0136             
1 47282U 20100AA  23302.91714440 -.00000220  00000+0 -64648-3 0  9992
2 47282  87.8984 181.8110 0001013  63.2074 296.9158 13.12441452138577
ONEWEB-0137             
1 47283U 20100AB  23303.63928418  .00000134  00000+0  33741-3 0  9997
2 47283  87.9044 181.6788 0001570  80.8563 279.2743 13.12439749138571
ONEWEB-0138             
1 47284U 20100AC  23303.38727767 -.00000340  00000+0 -97906-3 0  9998
2 47284  87.9048 181.7399 0001515  75.4606 284.6690 13.12442794138623
ONEWEB-0139             
1 47285U 20100AD  23303.43599255  .00000328  00000+0  87690-3 0  9997
2 47285  87.8992 181.7175 0001531  72.0742 288.0553 13.12440069138703
ONEWEB-0140             
1 47286U 20100AE  23303.38093758  .00002556  00000+0  70698-2 0  9993
2 47286  87.9047 181.7158 0001984  76.0070 284.1279 13.12428107138652
ONEWEB-0141             
1 47287U 20100AF  23303.40316890 -.00000095  00000+0 -29949-3 0  9994
2 47287  87.9051 181.7084 0001890  81.8561 278.2782 13.12443096138658
